STARLINK-30995          
1 58474U 23186B   25329.00004630  .00124986  00000+0  39942-2 0  9990
2 58474  42.9997 119.3370 0004838 317.4787  81.8714 15.31264332  5828
STARLINK-30941          
1 58475U 23186C   25328.55374307  .00000408  00000+0  45260-4 0  9995
2 58475  43.0065 278.9632 0001374 270.2215  89.8470 15.02540674110035
STARLINK-30980          
1 58476U 23186D   25328.88280499  .00001507  00000+0  12657-3 0  9994
2 58476  43.0046 277.1288 0001322 266.3703  93.6989 15.02540523110080
STARLINK-30965          
1 58477U 23186E   25328.86864523  .00000246  00000+0  33291-4 0  9996
2 58477  43.0040 264.0208 0001300 271.9746  88.0947 15.02530095110239
STARLINK-30990          
1 58478U 23186F   25328.87947643  .00000783  00000+0  72975-4 0  9991
2 58478  43.0023 277.1039 0001120 281.0843  78.9874 15.02549020110121
STARLINK-30984          
1 58480U 23186H   25328.89933931 -.00000153  00000+0  37615-5 0  9996
2 58480  42.9969 276.3867 0000701 287.2855  72.7911 15.02538135110091
STARLINK-30956          
1 58481U 23186J   25328.51686738  .00001571  00000+0  13132-3 0  9996
2 58481  43.0031 254.2635 0000984 276.5444  83.5286 15.02534762110312
STARLINK-30997          
1 58482U 23186K   25328.58358902  .00004140  00000+0  32120-3 0  9996
2 58482  43.0053 278.2946 0000872 283.7336  76.3409 15.02551460110045
STARLINK-30994          
1 58483U 23186L   25328.80640004  .00002117  00000+0  86387-4 0  9996
2 58483  43.0006 132.4898 0000632 298.2015  61.8772 15.27587796111760
STARLINK-30991          
1 58484U 23186M   25328.89600769  .00000548  00000+0  55615-4 0  9996
2 58484  43.0094 276.3643 0001447 263.4561  96.6116 15.02538623110089
STARLINK-30979          
1 58485U 23186N   25328.87278462  .00002704  00000+0  21505-3 0  9992
2 58485  43.0013 277.0497 0001128 234.4577 125.6161 15.02560558110071
STARLINK-31005          
1 58486U 23186P   25327.93879689 -.00000077  00000+0  94003-5 0  9994
2 58486  43.0063 282.0879 0001774 290.3906  69.6745 15.02536563109938
STARLINK-30987          
1 58487U 23186Q   25328.86616021 -.00000412  00000+0 -15418-4 0  9993
2 58487  43.0045 277.0034 0000980 270.6596  89.4134 15.02533188110079
STARLINK-31000          
1 58488U 23186R   25328.86282745  .00000664  00000+0  64206-4 0  9992
2 58488  43.0039 276.9760 0001028 257.1807 102.8920 15.02539813110070
STARLINK-30993          
1 58489U 23186S   25328.59358305 -.00000147  00000+0  41909-5 0  9992
2 58489  43.0017 278.3953 0001405 232.2514 127.8201 15.02533862110038
STARLINK-30978          
1 58490U 23186T   25328.59026730  .00000999  00000+0  88992-4 0  9994
2 58490  43.0040 278.3727 0001255 267.0736  92.9963 15.02538202110030
STARLINK-30953          
1 58491U 23186U   25328.57087207  .00001812  00000+0  75355-4 0  9993
2 58491  42.9995 141.1492 0001176 231.1287 128.9460 15.27578604111815
STARLINK-30986          
1 58492U 23186V   25328.84617927 -.00000048  00000+0  11501-4 0  9996
2 58492  43.0033 276.8524 0001075 270.6698  89.4021 15.02535105110078
STARLINK-30985          
1 58493U 23186W   25328.57693211  .00000064  00000+0  19784-4 0  9995
2 58493  43.0056 278.2728 0001380 266.0341  94.0343 15.02541110110037
STARLINK-30981          
1 58494U 23186X   25328.83954498 -.00003345  00000+0 -23280-3 0  9994
2 58494  43.0110 276.7995 0002652 259.9655 100.0888 15.02509472110071
STARLINK-31002          
1 58495U 23186Y   25328.30436734  .00001491  00000+0  12544-3 0  9994
2 58495  43.0043 279.6691 0001108 276.9111  83.1605 15.02535014110162
XINGCHI-1 02A           
1 58496U 23187A   25328.95447853  .00002352  00000+0  29291-3 0  9995
2 58496  97.9435  48.0595 0013128  91.5697 268.7020 14.83381328106838
MISRSAT-2               
1 58497U 23187B   25329.01336965  .00002129  00000+0  27138-3 0  9995
2 58497  97.9446  47.4759 0012496  92.1731 268.0913 14.82519875106786
XINGCHI-1 02B           
1 58498U 23187C   25328.97705655  .00003624  00000+0  43199-3 0  9992
2 58498  97.9458  48.7524 0012095  89.5613 270.6987 14.84875488106864
DOORY-SAT               
1 58500U 23188A   25329.01086954  .00001832  00000+0  26688-3 0  9990
2 58500  46.9807 213.9478 0008317 148.6653 211.4738 14.79861738106748
2023-189A               
1 58502U 23189A   25329.04299760  .00006190  00000+0  20840-3 0  9993
2 58502  97.4498 341.1709 0009737 266.1384  93.8744 15.31096224109956
2023-189B               
1 58503U 23189B   25329.02342515  .00051835  00000+0  69063-3 0  9995
2 58503  97.4276 351.2513 0004353 211.5753 148.5242 15.57970473110654
CHUANGXIN 19 (CX-19)    
1 58505U 23190A   25329.03388213  .00000119  00000+0  19292-3 0  9993
2 58505  86.5046  43.2059 0001392  96.9455 263.1846 13.39530317 97360
STARLINK-31026          
1 58508U 23191A   25328.68721360  .00000636  00000+0  62132-4 0  9997
2 58508  43.0038 317.6155 0001028 281.4487  78.6240 15.02536121109631
STARLINK-31020          
1 58509U 23191B   25328.68400010  .00000765  00000+0  71720-4 0  9990
2 58509  43.0049 318.4450 0001476 267.2751  92.7922 15.02539269109623
STARLINK-30989          
1 58510U 23191C   25328.69917850  .00000479  00000+0  50525-4 0  9990
2 58510  43.0047 316.8494 0001203 275.9883  84.0822 15.02540324109675
STARLINK-30968          
1 58511U 23191D   25328.36346292 -.00001811  00000+0 -11900-3 0  9997
2 58511  43.0056 318.6310 0001693 274.9882  85.0767 15.02537106109598
STARLINK-30982          
1 58512U 23191E   25328.69252082  .00000986  00000+0  88036-4 0  9992
2 58512  43.0041 316.8032 0001242 272.9950  87.0750 15.02535823109642
STARLINK-30998          
1 58513U 23191F   25328.02441464  .00000705  00000+0  67247-4 0  9994
2 58513  43.0041 320.3837 0001268 274.0534  86.0164 15.02535375109577
STARLINK-30983          
1 58514U 23191G   25328.31351347  .00000616  00000+0  60626-4 0  9992
2 58514  43.0030 318.2601 0001070 271.6632  88.4088 15.02540271109240
STARLINK-31017          
1 58515U 23191H   25328.77413861  .00004011  00000+0  15521-3 0  9999
2 58515  43.0024 103.6631 0001393 265.7909  94.2784 15.27577493112135
STARLINK-31028          
1 58516U 23191J   25328.68244848  .00002449  00000+0  19612-3 0  9995
2 58516  43.0046 316.7218 0001396 276.3865  83.6819 15.02574035109645
STARLINK-31011          
1 58517U 23191K   25328.68586280  .00001345  00000+0  11459-3 0  9990
2 58517  43.0041 316.7486 0001109 279.6083  80.4634 15.02537016109646
STARLINK-31021          
1 58518U 23191L   25328.70239774  .00001478  00000+0  12447-3 0  9992
2 58518  43.0035 315.9967 0001122 260.7087  99.3629 15.02531067109659
STARLINK-31010          
1 58519U 23191M   25328.04093945 -.00000095  00000+0  80061-5 0  9992
2 58519  43.0037 319.6022 0001042 261.7108  98.3616 15.02535621109555
STARLINK-31003          
1 58520U 23191N   25328.67921470  .00002423  00000+0  19438-3 0  9990
2 58520  43.0028 316.7022 0001224 276.0454  84.0248 15.02542183109644
STARLINK-31015          
1 58521U 23191P   25328.67587283  .00000040  00000+0  18036-4 0  9998
2 58521  43.0043 316.6781 0001179 273.6634  86.4073 15.02536966109616
STARLINK-31023          
1 58522U 23191Q   25328.34015216  .00001504  00000+0  12638-3 0  9992
2 58522  43.0047 318.4538 0001235 279.2892  80.7811 15.02538391109590
STARLINK-30932          
1 58523U 23191R   25328.66921634  .00000242  00000+0  33013-4 0  9997
2 58523  43.0021 316.6246 0001217 273.1351  86.9352 15.02536036109594
STARLINK-30992          
1 58524U 23191S   25328.66588595 -.00000260  00000+0 -41770-5 0  9995
2 58524  43.0041 316.5992 0001008 277.2665  82.8063 15.02535516109647
STARLINK-30948          
1 58525U 23191T   25328.66255392 -.00000702  00000+0 -36910-4 0  9992
2 58525  43.0032 316.5747 0000909 281.5777  78.4963 15.02537635109641
STARLINK-31013          
1 58526U 23191U   25328.65922505  .00000169  00000+0  27583-4 0  9990
2 58526  43.0019 316.5437 0000817 271.3945  88.6804 15.02536479109647
STARLINK-31001          
1 58527U 23191V   25328.37665741  .00002649  00000+0  21111-3 0  9991
2 58527  43.0057 317.7803 0001013 284.4335  75.6395 15.02532846109608
STARLINK-31004          
1 58528U 23191W   25328.65589407  .00001073  00000+0  94481-4 0  9998
2 58528  43.0056 316.5192 0001232 273.5927  86.4775 15.02534528109640
STARLINK-30988          
1 58529U 23191X   25328.38665530 -.00002006  00000+0 -13349-3 0  9993
2 58529  43.0053 317.9436 0001297 257.0249 103.0448 15.02533877109604
STARLINK-31009          
1 58530U 23191Y   25328.31684812  .00000607  00000+0  60008-4 0  9990
2 58530  43.0048 318.2792 0000919 273.8683  86.2055 15.02535085109617
STARLINK-31012          
1 58531U 23192A   25328.77247847 -.00000536  00000+0 -59864-5 0  9997
2 58531  53.1594 189.9602 0001127  97.3243 262.7886 15.30186345109921
STARLINK-31035          
1 58532U 23192B   25328.88144639 -.00000132  00000+0  76611-5 0  9995
2 58532  53.1595 176.4135 0001217  86.8439 273.2701 15.30191126110125
STARLINK-31036          
1 58533U 23192C   25328.80413902  .00000339  00000+0  23578-4 0  9991
2 58533  53.1601 190.1874 0001040 104.6134 255.4982 15.30195426109928
STARLINK-30936          
1 58534U 23192D   25328.77782362  .00004998  00000+0  18069-3 0  9990
2 58534  53.1612 180.0798 0001603  78.9417 281.1764 15.30213128110067
STARLINK-31032          
1 58535U 23192E   25328.77564257  .00000934  00000+0  43671-4 0  9996
2 58535  53.1575 189.9805 0001222  88.4486 271.6655 15.30195905109920
STARLINK-31037          
1 58536U 23192F   25328.77985646  .00000187  00000+0  18450-4 0  9993
2 58536  53.1603 190.0242 0001043 107.3153 252.7962 15.30186314109929
STARLINK-31041          
1 58537U 23192G   25328.77881002  .00000184  00000+0  18351-4 0  9992
2 58537  53.1599 189.9990 0001220  83.6265 276.4875 15.30198686109929
STARLINK-31014          
1 58538U 23192H   25328.78936111  .00003161  00000+0  11882-3 0  9995
2 58538  53.1591 190.0655 0001213 103.9346 256.1790 15.30198842109926
